CCSDS_OMM_VERS = 2.0
CREATION_DATE  = 
ORIGINATOR     = 

OBJECT_NAME    = UNKNOWN
OBJECT_ID      = 
CENTER_NAME    = EARTH
REF_FRAME      = TEME
TIME_SYSTEM    = UTC
MEAN_ELEMENT_THEORY = SGP/SGP4

EPOCH          = 2025-10-26T08:05:56.671008
MEAN_MOTION    = 13.14903195
ECCENTRICITY   = .0849516
INCLINATION    = 65.7062
RA_OF_ASC_NODE = 160.7212
ARG_OF_PERICENTER = 134.9826
MEAN_ANOMALY   = 232.3358

EPHEMERIS_TYPE = 0
CLASSIFICATION_TYPE = U
NORAD_CAT_ID   = 81921
ELEMENT_SET_NO = 999
REV_AT_EPOCH   = 1955
BSTAR          = .54748E-3
MEAN_MOTION_DOT = .1301E-4
MEAN_MOTION_DDOT = 0

CCSDS_OMM_VERS = 2.0
CREATION_DATE  = 
ORIGINATOR     = 

OBJECT_NAME    = UNKNOWN
OBJECT_ID      = 
CENTER_NAME    = EARTH
REF_FRAME      = TEME
TIME_SYSTEM    = UTC
MEAN_ELEMENT_THEORY = SGP/SGP4

EPOCH          = 2025-10-25T20:30:08.207424
MEAN_MOTION    = 12.42555510
ECCENTRICITY   = .0668899
INCLINATION    = 66.4185
RA_OF_ASC_NODE = 244.7417
ARG_OF_PERICENTER = 14.3999
MEAN_ANOMALY   = 14.3223

EPHEMERIS_TYPE = 0
CLASSIFICATION_TYPE = U
NORAD_CAT_ID   = 81946
ELEMENT_SET_NO = 999
REV_AT_EPOCH   = 54193
BSTAR          = .77515E-3
MEAN_MOTION_DOT = .182E-5
MEAN_MOTION_DDOT = 0

CCSDS_OMM_VERS = 2.0
CREATION_DATE  = 
ORIGINATOR     = 

OBJECT_NAME    = UNKNOWN
OBJECT_ID      = 
CENTER_NAME    = EARTH
REF_FRAME      = TEME
TIME_SYSTEM    = UTC
MEAN_ELEMENT_THEORY = SGP/SGP4

EPOCH          = 2025-10-22T09:43:35.353056
MEAN_MOTION    = 14.51983898
ECCENTRICITY   = .0383872
INCLINATION    = 66.0745
RA_OF_ASC_NODE = 311.3197
ARG_OF_PERICENTER = 174.6604
MEAN_ANOMALY   = 185.8786

EPHEMERIS_TYPE = 0
CLASSIFICATION_TYPE = U
NORAD_CAT_ID   = 81947
ELEMENT_SET_NO = 999
REV_AT_EPOCH   = 62356
BSTAR          = .56207E-3
MEAN_MOTION_DOT = .5933E-4
MEAN_MOTION_DDOT = 0

CCSDS_OMM_VERS = 2.0
CREATION_DATE  = 
ORIGINATOR     = 

OBJECT_NAME    = UNKNOWN
OBJECT_ID      = 
CENTER_NAME    = EARTH
REF_FRAME      = TEME
TIME_SYSTEM    = UTC
MEAN_ELEMENT_THEORY = SGP/SGP4

EPOCH          = 2025-10-23T15:48:54.904320
MEAN_MOTION    = 13.95749672
ECCENTRICITY   = .0030437
INCLINATION    = 66.5868
RA_OF_ASC_NODE = 23.1507
ARG_OF_PERICENTER = 128.0986
MEAN_ANOMALY   = 232.2845

EPHEMERIS_TYPE = 0
CLASSIFICATION_TYPE = U
NORAD_CAT_ID   = 81964
ELEMENT_SET_NO = 999
REV_AT_EPOCH   = 60705
BSTAR          = .32977E-3
MEAN_MOTION_DOT = .373E-5
MEAN_MOTION_DDOT = 0

CCSDS_OMM_VERS = 2.0
CREATION_DATE  = 
ORIGINATOR     = 

OBJECT_NAME    = UNKNOWN
OBJECT_ID      = 
CENTER_NAME    = EARTH
REF_FRAME      = TEME
TIME_SYSTEM    = UTC
MEAN_ELEMENT_THEORY = SGP/SGP4

EPOCH          = 2025-10-26T21:44:12.254496
MEAN_MOTION    = 15.09665064
ECCENTRICITY   = .0005872
INCLINATION    = 86.6909
RA_OF_ASC_NODE = 173.7265
ARG_OF_PERICENTER = 22.3753
MEAN_ANOMALY   = 337.7740

EPHEMERIS_TYPE = 0
CLASSIFICATION_TYPE = U
NORAD_CAT_ID   = 81969
ELEMENT_SET_NO = 999
REV_AT_EPOCH   = 43310
BSTAR          = .65865E-3
MEAN_MOTION_DOT = .10637E-3
MEAN_MOTION_DDOT = 0

CCSDS_OMM_VERS = 2.0
CREATION_DATE  = 
ORIGINATOR     = 

OBJECT_NAME    = UNKNOWN
OBJECT_ID      = 
CENTER_NAME    = EARTH
REF_FRAME      = TEME
TIME_SYSTEM    = UTC
MEAN_ELEMENT_THEORY = SGP/SGP4

EPOCH          = 2025-10-24T06:11:34.368288
MEAN_MOTION    = 14.02859049
ECCENTRICITY   = .0521565
INCLINATION    = 65.7453
RA_OF_ASC_NODE = 253.3746
ARG_OF_PERICENTER = 321.3384
MEAN_ANOMALY   = 35.1403

EPHEMERIS_TYPE = 0
CLASSIFICATION_TYPE = U
NORAD_CAT_ID   = 81995
ELEMENT_SET_NO = 999
REV_AT_EPOCH   = 59728
BSTAR          = .30993E-2
MEAN_MOTION_DOT = .16384E-3
MEAN_MOTION_DDOT = 0

CCSDS_OMM_VERS = 2.0
CREATION_DATE  = 
ORIGINATOR     = 

OBJECT_NAME    = UNKNOWN
OBJECT_ID      = 
CENTER_NAME    = EARTH
REF_FRAME      = TEME
TIME_SYSTEM    = UTC
MEAN_ELEMENT_THEORY = SGP/SGP4

EPOCH          = 2025-10-25T04:01:30.912960
MEAN_MOTION    = 14.32009461
ECCENTRICITY   = .0232535
INCLINATION    = 97.9264
RA_OF_ASC_NODE = 90.9570
ARG_OF_PERICENTER = 229.3884
MEAN_ANOMALY   = 128.6868

EPHEMERIS_TYPE = 0
CLASSIFICATION_TYPE = U
NORAD_CAT_ID   = 82043
ELEMENT_SET_NO = 999
REV_AT_EPOCH   = 56689
BSTAR          = .15989E-2
MEAN_MOTION_DOT = .5743E-4
MEAN_MOTION_DDOT = 0

CCSDS_OMM_VERS = 2.0
CREATION_DATE  = 
ORIGINATOR     = 

OBJECT_NAME    = UNKNOWN
OBJECT_ID      = 
CENTER_NAME    = EARTH
REF_FRAME      = TEME
TIME_SYSTEM    = UTC
MEAN_ELEMENT_THEORY = SGP/SGP4

EPOCH          = 2025-10-26T12:10:01.483104
MEAN_MOTION    = 14.35168164
ECCENTRICITY   = .0092714
INCLINATION    = 98.7491
RA_OF_ASC_NODE = 24.3318
ARG_OF_PERICENTER = 40.4143
MEAN_ANOMALY   = 320.3881

EPHEMERIS_TYPE = 0
CLASSIFICATION_TYPE = U
NORAD_CAT_ID   = 82051
ELEMENT_SET_NO = 999
REV_AT_EPOCH   = 56563
BSTAR          = .18731E-2
MEAN_MOTION_DOT = .5577E-4
MEAN_MOTION_DDOT = 0

CCSDS_OMM_VERS = 2.0
CREATION_DATE  = 
ORIGINATOR     = 

OBJECT_NAME    = UNKNOWN
OBJECT_ID      = 
CENTER_NAME    = EARTH
REF_FRAME      = TEME
TIME_SYSTEM    = UTC
MEAN_ELEMENT_THEORY = SGP/SGP4

EPOCH          = 2025-10-27T12:03:08.192160
MEAN_MOTION    = 14.38515028
ECCENTRICITY   = .0209386
INCLINATION    = 97.7559
RA_OF_ASC_NODE = 21.0209
ARG_OF_PERICENTER = 69.0568
MEAN_ANOMALY   = 293.2892

EPHEMERIS_TYPE = 0
CLASSIFICATION_TYPE = U
NORAD_CAT_ID   = 82073
ELEMENT_SET_NO = 999
REV_AT_EPOCH   = 56847
BSTAR          = .71455E-3
MEAN_MOTION_DOT = .2778E-4
MEAN_MOTION_DDOT = 0

CCSDS_OMM_VERS = 2.0
CREATION_DATE  = 
ORIGINATOR     = 

OBJECT_NAME    = UNKNOWN
OBJECT_ID      = 
CENTER_NAME    = EARTH
REF_FRAME      = TEME
TIME_SYSTEM    = UTC
MEAN_ELEMENT_THEORY = SGP/SGP4

EPOCH          = 2025-10-27T09:44:38.711040
MEAN_MOTION    = 14.15091611
ECCENTRICITY   = .0084676
INCLINATION    = 99.0265
RA_OF_ASC_NODE = 7.7342
ARG_OF_PERICENTER = 173.4951
MEAN_ANOMALY   = 186.7342

EPHEMERIS_TYPE = 0
CLASSIFICATION_TYPE = U
NORAD_CAT_ID   = 82139
ELEMENT_SET_NO = 999
REV_AT_EPOCH   = 47356
BSTAR          = .18275E-2
MEAN_MOTION_DOT = .3624E-4
MEAN_MOTION_DDOT = 0

CCSDS_OMM_VERS = 2.0
CREATION_DATE  = 
ORIGINATOR     = 

OBJECT_NAME    = UNKNOWN
OBJECT_ID      = 
CENTER_NAME    = EARTH
REF_FRAME      = TEME
TIME_SYSTEM    = UTC
MEAN_ELEMENT_THEORY = SGP/SGP4

EPOCH          = 2025-10-26T00:58:59.381184
MEAN_MOTION    = 13.53078564
ECCENTRICITY   = .0065685
INCLINATION    = 100.4775
RA_OF_ASC_NODE = 220.8176
ARG_OF_PERICENTER = 345.6107
MEAN_ANOMALY   = 14.3155

EPHEMERIS_TYPE = 0
CLASSIFICATION_TYPE = U
NORAD_CAT_ID   = 82162
ELEMENT_SET_NO = 999
REV_AT_EPOCH   = 49785
BSTAR          = .67221E-2
MEAN_MOTION_DOT = .4504E-4
MEAN_MOTION_DDOT = 0

CCSDS_OMM_VERS = 2.0
CREATION_DATE  = 
ORIGINATOR     = 

OBJECT_NAME    = UNKNOWN
OBJECT_ID      = 
CENTER_NAME    = EARTH
REF_FRAME      = TEME
TIME_SYSTEM    = UTC
MEAN_ELEMENT_THEORY = SGP/SGP4

EPOCH          = 2025-10-27T01:28:58.350144
MEAN_MOTION    = 14.48806690
ECCENTRICITY   = .033146
INCLINATION    = 65.6558
RA_OF_ASC_NODE = 60.1767
ARG_OF_PERICENTER = 240.7339
MEAN_ANOMALY   = 116.0253

EPHEMERIS_TYPE = 0
CLASSIFICATION_TYPE = U
NORAD_CAT_ID   = 82180
ELEMENT_SET_NO = 999
REV_AT_EPOCH   = 59498
BSTAR          = .38605E-2
MEAN_MOTION_DOT = .29618E-3
MEAN_MOTION_DDOT = 0

CCSDS_OMM_VERS = 2.0
CREATION_DATE  = 
ORIGINATOR     = 

OBJECT_NAME    = UNKNOWN
OBJECT_ID      = 
CENTER_NAME    = EARTH
REF_FRAME      = TEME
TIME_SYSTEM    = UTC
MEAN_ELEMENT_THEORY = SGP/SGP4

EPOCH          = 2025-10-25T19:52:30.396576
MEAN_MOTION    = 14.35157508
ECCENTRICITY   = .0016768
INCLINATION    = 74.0325
RA_OF_ASC_NODE = 136.1640
ARG_OF_PERICENTER = 336.1010
MEAN_ANOMALY   = 23.9362

EPHEMERIS_TYPE = 0
CLASSIFICATION_TYPE = U
NORAD_CAT_ID   = 82189
ELEMENT_SET_NO = 999
REV_AT_EPOCH   = 62554
BSTAR          = .1315E-3
MEAN_MOTION_DOT = .35E-5
MEAN_MOTION_DDOT = 0

CCSDS_OMM_VERS = 2.0
CREATION_DATE  = 
ORIGINATOR     = 

OBJECT_NAME    = UNKNOWN
OBJECT_ID      = 
CENTER_NAME    = EARTH
REF_FRAME      = TEME
TIME_SYSTEM    = UTC
MEAN_ELEMENT_THEORY = SGP/SGP4

EPOCH          = 2025-10-24T09:13:03.513216
MEAN_MOTION    = 13.85699032
ECCENTRICITY   = .0036722
INCLINATION    = 82.9635
RA_OF_ASC_NODE = 270.9877
ARG_OF_PERICENTER = 173.6938
MEAN_ANOMALY   = 339.6022

EPHEMERIS_TYPE = 0
CLASSIFICATION_TYPE = U
NORAD_CAT_ID   = 82199
ELEMENT_SET_NO = 999
REV_AT_EPOCH   = 60285
BSTAR          = .67631E-3
MEAN_MOTION_DOT = .793E-5
MEAN_MOTION_DDOT = 0

CCSDS_OMM_VERS = 2.0
CREATION_DATE  = 
ORIGINATOR     = 

OBJECT_NAME    = UNKNOWN
OBJECT_ID      = 
CENTER_NAME    = EARTH
REF_FRAME      = TEME
TIME_SYSTEM    = UTC
MEAN_ELEMENT_THEORY = SGP/SGP4

EPOCH          = 2025-10-25T22:24:56.659968
MEAN_MOTION    = 13.92757733
ECCENTRICITY   = .0494402
INCLINATION    = 63.0120
RA_OF_ASC_NODE = 21.0405
ARG_OF_PERICENTER = 287.9553
MEAN_ANOMALY   = 66.8203

EPHEMERIS_TYPE = 0
CLASSIFICATION_TYPE = U
NORAD_CAT_ID   = 82205
ELEMENT_SET_NO = 999
REV_AT_EPOCH   = 60134
BSTAR          = .11144E-2
MEAN_MOTION_DOT = .3876E-4
MEAN_MOTION_DDOT = 0

CCSDS_OMM_VERS = 2.0
CREATION_DATE  = 
ORIGINATOR     = 

OBJECT_NAME    = UNKNOWN
OBJECT_ID      = 
CENTER_NAME    = EARTH
REF_FRAME      = TEME
TIME_SYSTEM    = UTC
MEAN_ELEMENT_THEORY = SGP/SGP4

EPOCH          = 2025-10-27T03:12:21.667104
MEAN_MOTION    = 14.11511125
ECCENTRICITY   = .0069341
INCLINATION    = 99.3175
RA_OF_ASC_NODE = 184.2952
ARG_OF_PERICENTER = 113.3448
MEAN_ANOMALY   = 247.5037

EPHEMERIS_TYPE = 0
CLASSIFICATION_TYPE = U
NORAD_CAT_ID   = 82223
ELEMENT_SET_NO = 999
REV_AT_EPOCH   = 44221
BSTAR          = .15242E-2
MEAN_MOTION_DOT = .2782E-4
MEAN_MOTION_DDOT = 0

